NORAD_CAT_ID,OBJECT_NAME,OBJECT_TYPE,EPOCH,MEAN_MOTION,ECCENTRICITY,INCLINATION,RA_OF_ASC_NODE,ARG_OF_PERICENTER,MEAN_ANOMALY,BSTAR,MEAN_MOTION_DOT,MEAN_MOTION_DDOT,TLE_LINE0,TLE_LINE1,TLE_LINE2,SEMIMAJOR_AXIS,PERIOD,APOGEE,PERIGEE,DECAYED
51993.0,STARLINK-3648,PAYLOAD,2023-03-16 20:07:09,15.08831352,0.000119,53.2146,247.1653,100.6578,259.4549,0.00052663,8.101e-05,0.0,0 STARLINK-3648,1 51993U 22025AP  23075.83830809  .00008101  00000-0  52663-3 0  9999,2 51993  53.2146 247.1653 0001190 100.6578 259.4549 15.08831352 56685,6917.907,95.438,540.595,538.949,0.0
51993.0,STARLINK-3648,PAYLOAD,2023-03-16 21:42:32,15.08834324,0.000117,53.2143,246.8673,102.3909,257.7214,0.00069957,0.00010862,0.0,0 STARLINK-3648,1 51993U 22025AP  23075.90454810  .00010862  00000-0  69957-3 0  9992,2 51993  53.2143 246.8673 0001170 102.3909 257.7214 15.08834324 57802,6917.898,95.438,540.572,538.953,0.0
51993.0,STARLINK-3648,PAYLOAD,2023-03-17 12:01:01,15.08826647,0.0001212,53.2147,244.1933,97.566,262.547,8.0385e-05,9.91e-06,0.0,0 STARLINK-3648,1 51993U 22025AP  23076.50071533  .00000991  00000-0  80385-4 0  9997,2 51993  53.2147 244.1933 0001212  97.5660 262.5470 15.08826647 56785,6917.921,95.438,540.625,538.948,0.0
51993.0,STARLINK-3648,PAYLOAD,2023-03-17 19:57:57,15.08835349,0.0001226,53.2151,242.7048,88.5527,271.5606,0.00034302,5.175e-05,0.0,0 STARLINK-3648,1 51993U 22025AP  23076.83191600  .00005175  00000-0  34302-3 0  9997,2 51993  53.2151 242.7048 0001226  88.5527 271.5606 15.08835349 57947,6917.895,95.438,540.608,538.911,0.0
51993.0,STARLINK-3648,PAYLOAD,2023-03-17 21:33:20,15.08834089,0.0001304,53.2128,242.4056,77.7531,282.3607,0.00033611,5.064e-05,0.0,0 STARLINK-3648,1 51993U 22025AP  23076.89815708  .00005064  00000-0  33611-3 0  9994,2 51993  53.2128 242.4056 0001304  77.7531 282.3607 15.08834089 56848,6917.898,95.438,540.666,538.861,0.0
51993.0,STARLINK-3648,PAYLOAD,2023-03-18 18:13:21,15.08859475,0.0001192,53.2142,238.5404,81.3523,278.7604,0.00087875,0.00013732,0.0,0 STARLINK-3648,1 51993U 22025AP  23077.75927203  .00013732  00000-0  87875-3 0  9996,2 51993  53.2142 238.5404 0001192  81.3523 278.7604 15.08859475 58084,6917.821,95.436,540.51,538.861,0.0
51993.0,STARLINK-3648,PAYLOAD,2023-03-19 03:45:39,15.08855657,0.0001087,53.2144,236.754,87.2429,272.8687,0.00036834,5.582e-05,0.0,0 STARLINK-3648,1 51993U 22025AP  23078.15670925  .00005582  00000-0  36834-3 0  9990,2 51993  53.2144 236.7540 0001087  87.2429 272.8687 15.08855657 58141,6917.833,95.437,540.45,538.946,0.0
51993.0,STARLINK-3648,PAYLOAD,2023-03-19 13:17:58,15.08851519,0.0001404,53.2128,234.9709,86.9774,273.1379,0.00032906,4.955e-05,0.0,0 STARLINK-3648,1 51993U 22025AP  23078.55414971  .00004955  00000-0  32906-3 0  9990,2 51993  53.2128 234.9709 0001404  86.9774 273.1379 15.08851519 57090,6917.845,95.437,540.681,538.739,0.0
51993.0,STARLINK-3648,PAYLOAD,2023-03-19 19:39:30,15.08857854,0.0001056,53.214,233.7816,87.7593,272.352,0.00071256,0.00011076,0.0,0 STARLINK-3648,1 51993U 22025AP  23078.81910697  .00011076  00000-0  71256-3 0  9998,2 51993  53.2140 233.7816 0001056  87.7593 272.3520 15.08857854 58246,6917.826,95.436,540.421,538.96,0.0
51993.0,STARLINK-3648,PAYLOAD,2023-03-20 03:36:26,15.08839474,0.0001132,53.2142,232.2946,80.9371,279.1749,0.00024251,3.574e-05,0.0,0 STARLINK-3648,1 51993U 22025AP  23079.15031155  .00003574  00000-0  24251-3 0  9996,2 51993  53.2142 232.2946 0001132  80.9371 279.1749 15.08839474 58291,6917.882,95.438,540.53,538.964,0.0
51993.0,STARLINK-3648,PAYLOAD,2023-03-20 09:57:59,15.08835627,0.0001168,53.2141,231.105,72.7843,287.3277,0.00028483,4.248e-05,0.0,0 STARLINK-3648,1 51993U 22025AP  23079.41527246  .00004248  00000-0  28483-3 0  9996,2 51993  53.2141 231.1050 0001168  72.7843 287.3277 15.08835627 57221,6917.894,95.438,540.567,538.951,0.0
51993.0,STARLINK-3648,PAYLOAD,2023-03-20 16:19:32,15.08839147,0.000132,53.2149,229.9169,68.3297,291.7835,0.00042257,6.444e-05,0.0,0 STARLINK-3648,1 51993U 22025AP  23079.68023366  .00006444  00000-0  42257-3 0  9994,2 51993  53.2149 229.9169 0001320  68.3297 291.7835 15.08839147 57263,6917.883,95.438,540.661,538.835,0.0
51993.0,STARLINK-3648,PAYLOAD,2023-03-21 03:27:14,15.08821741,9.73e-05,53.2149,227.836,71.8159,288.2939,-0.00018779,-3.274e-05,0.0,0 STARLINK-3648,1 51993U 22025AP  23080.14392186 -.00003274  00000-0 -18779-3 0  9998,2 51993  53.2149 227.8360 0000973  71.8159 288.2939 15.08821741 58440,6917.936,95.439,540.474,539.128,0.0
51993.0,STARLINK-3648,PAYLOAD,2023-03-21 09:48:47,15.08821982,0.0001173,53.2152,226.6459,76.7153,283.397,-6.7367e-05,-1.359e-05,0.0,0 STARLINK-3648,1 51993U 22025AP  23080.40888758 -.00001359  00000-0 -67367-4 0  9992,2 51993  53.2152 226.6459 0001173  76.7153 283.3970 15.08821982 57370,6917.935,95.439,540.612,538.989,0.0
51993.0,STARLINK-3648,PAYLOAD,2023-03-21 20:56:30,15.08833862,0.0001568,53.2152,224.5635,72.508,287.6084,0.00056321,8.685e-05,0.0,0 STARLINK-3648,1 51993U 22025AP  23080.87257060  .00008685  00000-0  56321-3 0  9993,2 51993  53.2152 224.5635 0001568  72.5080 287.6084 15.08833862 57445,6917.899,95.438,540.849,538.679,0.0
51993.0,STARLINK-3648,PAYLOAD,2023-03-22 16:01:06,15.08880349,0.0001315,53.2162,220.9954,73.8172,286.2964,0.001511,0.00023868,0.0,0 STARLINK-3648,1 51993U 22025AP  23081.66743904  .00023868  00000-0  15110-2 0  9998,2 51993  53.2162 220.9954 0001315  73.8172 286.2964 15.08880349 58676,6917.757,95.435,540.532,538.712,0.0
51993.0,STARLINK-3648,PAYLOAD,2023-03-22 20:47:15,15.08893761,0.0001584,53.2158,220.1024,72.4066,287.7099,0.0015219,0.00024052,0.0,0 STARLINK-3648,1 51993U 22025AP  23081.86615393  .00024052  00000-0  15219-2 0  9996,2 51993  53.2158 220.1024 0001584  72.4066 287.7099 15.08893761 57593,6917.716,95.434,540.677,538.485,0.0
51993.0,STARLINK-3648,PAYLOAD,2023-03-23 12:41:06,15.0885982,0.0001585,53.216,217.1301,89.1115,271.0059,-0.00019278,-3.357e-05,0.0,0 STARLINK-3648,1 51993U 22025AP  23082.52855107 -.00003357  00000-0 -19278-3 0  9996,2 51993  53.2160 217.1301 0001585  89.1115 271.0059 15.08859820 58806,6917.82,95.436,540.781,538.588,0.0
51993.0,STARLINK-3648,PAYLOAD,2023-03-23 14:16:29,15.08862687,0.0001657,53.216,216.8325,90.4916,269.6266,-0.00018852,-3.289e-05,0.0,0 STARLINK-3648,1 51993U 22025AP  23082.59478976 -.00003289  00000-0 -18852-3 0  9999,2 51993  53.2160 216.8325 0001657  90.4916 269.6266 15.08862687 57708,6917.811,95.436,540.822,538.53,0.0
51993.0,STARLINK-3648,PAYLOAD,2023-03-23 15:51:52,15.0886804,0.0001515,53.2166,216.5355,87.3626,272.754,0.00031927,4.801e-05,0.0,0 STARLINK-3648,1 51993U 22025AP  23082.66102815  .00004801  00000-0  31927-3 0  9990,2 51993  53.2166 216.5355 0001515  87.3626 272.7540 15.08868040 57710,6917.795,95.436,540.708,538.612,0.0
51993.0,STARLINK-3648,PAYLOAD,2023-03-24 12:31:51,15.0890036,0.000129,53.2161,212.6712,113.1445,246.9683,0.0016789,0.00026577,0.0,0 STARLINK-3648,1 51993U 22025AP  23083.52212961  .00026577  00000-0  16789-2 0  9992,2 51993  53.2161 212.6712 0001290 113.1445 246.9683 15.08900360 58956,6917.696,95.434,540.453,538.669,0.0
51993.0,STARLINK-3648,PAYLOAD,2023-03-24 14:07:14,15.0890586,0.0001399,53.2165,212.3747,139.8734,220.2361,0.0022248,0.00035362,0.0,0 STARLINK-3648,1 51993U 22025AP  23083.58836461  .00035362  00000-0  22248-2 0  9994,2 51993  53.2165 212.3747 0001399 139.8734 220.2361 15.08905860 57857,6917.679,95.433,540.512,538.576,0.0
51993.0,STARLINK-3648,PAYLOAD,2023-03-24 17:18:00,15.08928753,0.0001309,53.2164,211.7797,118.1501,241.9624,0.0028591,0.0004562,0.0,0 STARLINK-3648,1 51993U 22025AP  23083.72083816  .00045620  00000-0  28591-2 0  9993,2 51993  53.2164 211.7797 0001309 118.1501 241.9624 15.08928753 58980,6917.609,95.432,540.38,538.569,0.0
51993.0,STARLINK-3648,PAYLOAD,2023-03-25 01:14:55,15.08890506,0.0001438,53.2157,210.2904,74.4302,285.6849,0.00041154,6.277e-05,0.0,0 STARLINK-3648,1 51993U 22025AP  23084.05203472  .00006277  00000-0  41154-3 0  9998,2 51993  53.2157 210.2904 0001438  74.4302 285.6849 15.08890506 59037,6917.726,95.434,540.586,538.596,0.0
51993.0,STARLINK-3648,PAYLOAD,2023-03-25 12:22:39,15.08780016,0.0001131,53.2168,208.211,122.8559,237.2542,-0.00027152,-4.599e-05,0.0,0 STARLINK-3648,1 51993U 22025AP  23084.51573440 -.00004599  00000-0 -27152-3 0  9993,2 51993  53.2168 208.2110 0001131 122.8559 237.2542 15.08780016 59102,6918.064,95.441,540.711,539.146,0.0
51993.0,STARLINK-3648,PAYLOAD,2023-03-25 17:08:49,15.08787181,0.0001026,53.2155,207.3178,84.3393,275.7716,0.0023006,0.00036463,0.0,0 STARLINK-3648,1 51993U 22025AP  23084.71446541  .00036463  00000-0  23006-2 0  9992,2 51993  53.2155 207.3178 0001026  84.3393 275.7716 15.08787181 59136,6918.042,95.441,540.617,539.197,0.0
51993.0,STARLINK-3648,PAYLOAD,2023-03-25 20:19:36,15.08796317,0.000113,53.2149,206.7225,78.9321,281.1798,0.0027003,0.00042897,0.0,0 STARLINK-3648,1 51993U 22025AP  23084.84695080  .00042897  00000-0  27003-2 0  9999,2 51993  53.2149 206.7225 0001130  78.9321 281.1798 15.08796317 58042,6918.014,95.44,540.661,539.097,0.0
51993.0,STARLINK-3648,PAYLOAD,2023-03-26 12:13:28,15.08831443,0.000102,53.2153,203.7503,80.0612,280.0495,0.0021015,0.00033308,0.0,0 STARLINK-3648,1 51993U 22025AP  23085.50936313  .00033308  00000-0  21015-2 0  9994,2 51993  53.2153 203.7503 0001020  80.0612 280.0495 15.08831443 59254,6917.907,95.438,540.477,539.066,0.0
51993.0,STARLINK-3648,PAYLOAD,2023-03-26 20:10:24,15.0886084,0.0001302,53.2147,202.2618,66.6853,293.4276,0.0023365,0.00037115,0.0,0 STARLINK-3648,1 51993U 22025AP  23085.84056177  .00037115  00000-0  23365-2 0  9992,2 51993  53.2147 202.2618 0001302  66.6853 293.4276 15.08860840 58198,6917.817,95.436,540.582,538.781,0.0
51993.0,STARLINK-3648,PAYLOAD,2023-03-27 13:39:39,15.08848549,0.0001502,53.2145,198.9911,58.7484,301.3655,0.0017972,0.00028437,0.0,0 STARLINK-3648,1 51993U 22025AP  23086.56920726  .00028437  00000-0  17972-2 0  9996,2 51993  53.2145 198.9911 0001502  58.7484 301.3655 15.08848549 58302,6917.854,95.437,540.758,538.68,0.0
